SHIJIAN-17 (SJ-17)      
1 41838U 16065A   26178.61527325  .00000126  00000+0  00000+0 0  9994
2 41838   5.7786  72.4829 0002252  29.4589 255.4832  0.99859162 35308
GOES 16                 
1 41866U 16071A   26178.92808632 -.00000080  00000+0  00000+0 0  9999
2 41866   0.3676  85.5181 0000600  12.5611  47.3688  1.00272096 35213
TIANLIAN 1-04           
1 41869U 16072A   26178.84122990  .00000042  00000+0  00000+0 0  9997
2 41869   0.8957  82.8595 0042936  90.3532 222.3659  1.00273492 35401
WGS F8 (USA 272)        
1 41879U 16075A   26178.76461723  .00000000  00000+0  00000+0 0  9996
2 41879   0.0466  54.3106 0000930  46.4614 240.2350  1.00281238 34922
FENGYUN 4A              
1 41882U 16077A   26178.90200913 -.00000347  00000+0  00000+0 0  9995
2 41882   2.3489  80.1799 0007946 157.9961 126.1925  1.00278495 35032
ECHOSTAR 19             
1 41893U 16079A   26178.92964633 -.00000127  00000+0  00000+0 0  9993
2 41893   0.0164  30.6203 0001631  58.6985  64.2748  1.00270717 34816
JCSAT-110A (JCSAT-15)   
1 41903U 16082A   26178.98267208 -.00000339  00000+0  00000+0 0  9994
2 41903   0.0181   9.2794 0000844  94.8001 275.8393  1.00271329 34861
STAR ONE D1             
1 41904U 16082B   26178.93224634 -.00000199  00000+0  00000+0 0  9990
2 41904   0.0247  59.2345 0002300  53.3267  55.0848  1.00271512 34884
TJS-2                   
1 41911U 17001A   26178.92981774  .00000004  00000+0  00000+0 0  9998
2 41911   0.8606  85.2064 0000806  46.3168 185.7814  1.00272501 34824
SBIRS GEO-4 (USA 273)   
1 41937U 17004A   26178.88163294  .00000133  00000+0  00000+0 0  9996
2 41937   2.2629  43.5716 0002389  45.5099 165.2033  1.00274226 34705
HISPASAT 36W-1          
1 41942U 17006A   26178.65645440 -.00000233  00000+0  00000+0 0  9999
2 41942   0.0112 313.0675 0001051 140.8189  22.2042  1.00270277 34352
TELKOM 3S               
1 41944U 17007A   26178.98291324 -.00000351  00000+0  00000+0 0  9997
2 41944   0.0164  66.0765 0002518  30.8949 290.9681  1.00272612 34243
INTELSAT 32E (IS-32E)   
1 41945U 17007B   26178.72645328 -.00000257  00000+0  00000+0 0  9992
2 41945   0.0130 335.1837 0000822  22.4501 136.5419  1.00272230 34334
ECHOSTAR 23             
1 42070U 17014A   26178.64180766  .00000000  00000+0  00000+0 0  9996
2 42070   0.0288  22.8488 0002011  72.5824 301.4733  1.00269724 34028
WGS F9 (USA 275)        
1 42075U 17016A   26178.66133448  .00000000  00000+0  00000+0 0  9990
2 42075   0.0265 352.0811 0000446  64.7301  85.0431  1.00270156 34008
SES-10                  
1 42432U 17017A   26178.57908569 -.00000261  00000+0  00000+0 0  9992
2 42432   0.0187  36.0562 0003047  66.1004 315.1091  1.00273087 33853
CHINASAT 16 (SJ-13)     
1 42662U 17018A   26178.97631812 -.00000341  00000+0  00000+0 0  9995
2 42662   0.0969  89.8901 0003907 125.0148 163.1688  1.00272817 33851
KOREASAT 7              
1 42691U 17023A   26178.98071916 -.00000350  00000+0  00000+0 0  9997
2 42691   0.0229  21.4395 0000595  57.1872 306.4218  1.00271438 33477
SGDC                    
1 42692U 17023B   26178.44256226 -.00000238  00000+0  00000+0 0  9993
2 42692   0.0243  60.7130 0002808  40.0755 259.2393  1.00272934 33513
GSAT-9                  
1 42695U 17024A   26178.71259034 -.00000275  00000+0  00000+0 0  9998
2 42695   0.0417  88.5410 0002165  17.0328 164.0639  1.00275994 33407
INMARSAT 5-F4           
1 42698U 17025A   26178.67477354  .00000000  00000+0  00000+0 0  9999
2 42698   0.0282  25.5755 0000375  48.5200 141.1089  1.00269586 33384
SES-15                  
1 42709U 17026A   26178.63816764  .00000071  00000+0  00000+0 0  9999
2 42709   0.0223 331.2484 0000731 121.5342 283.5476  1.00272066  7539
QZS-2 (MICHIBIKI-2)     
1 42738U 17028A   26178.49488950 -.00000130  00000+0  00000+0 0  9996
2 42738  39.4116 243.0027 0758985 269.3731  83.4413  1.00281278  7730
VIASAT-2                
1 42740U 17029A   26178.57856568 -.00000254  00000+0  00000+0 0  9990
2 42740   0.0170 301.4559 0000481 129.4405 343.1940  1.00272170 33305
EUTELSAT 172B           
1 42741U 17029B   26178.91162918  .00000006  00000+0  00000+0 0  9992
2 42741   0.0378 135.3738 0000320 317.3928 323.4379  1.00272464 33841
GSAT-19                 
1 42747U 17031A   26178.92458308  .00000000  00000+0  00000+0 0  9997
2 42747   0.0204   9.8981 0007168  68.4019 218.4319  1.00272085 33253
ECHOSTAR 21             
1 42749U 17032A   26178.92197712  .00000078  00000+0  00000+0 0  9994
2 42749   1.7698 356.4118 0002618  90.4705 171.3220  1.00273680 33200
BULGARIASAT-1           
1 42801U 17038A   26178.92753183  .00000022  00000+0  00000+0 0  9998
2 42801   0.0347  75.2967 0003561  29.4390 147.1062  1.00267458 32952
HELLAS-SAT 3            
1 42814U 17040A   26178.75900285  .00000164  00000+0  00000+0 0  9990
2 42814   0.0425  38.1326 0004330  22.4672 167.5099  1.00269941 32912
GSAT-17                 
1 42815U 17040B   26178.99128485 -.00000246  00000+0  00000+0 0  9993
2 42815   0.0328  85.4594 0001370 205.6681  75.3337  1.00272306 32890
INTELSAT 35E (IS-35E)   
1 42818U 17041A   26178.79947166  .00000000  00000+0  00000+0 0  9997
2 42818   0.0289  29.8995 0002382  68.9371  70.3884  1.00268878 32921
COSMOS 2520             
1 42907U 17046A   26178.92204854  .00000149  00000+0  00000+0 0  9990
2 42907   0.0438  98.9494 0000361  31.4413 162.5667  1.00270924 32506
