OBJECT_NAME,OBJECT_ID,EPOCH,MEAN_MOTION,ECCENTRICITY,INCLINATION,RA_OF_ASC_NODE,ARG_OF_PERICENTER,MEAN_ANOMALY,EPHEMERIS_TYPE,CLASSIFICATION_TYPE,NORAD_CAT_ID,ELEMENT_SET_NO,REV_AT_EPOCH,BSTAR,MEAN_MOTION_DOT,MEAN_MOTION_DDOT
SHIJIAN-17 (SJ-17),2016-065A,2026-06-27T14:45:59.608800,0.99859162,.0002252,5.7786,72.4829,29.4589,255.4832,0,U,41838,999,3530,0,.126E-5,0
GOES 16,2016-071A,2026-06-27T22:16:26.658048,1.00272096,.00006006,0.3676,85.5181,12.5611,47.3688,0,U,41866,999,3521,0,-.8E-6,0
TIANLIAN 1-04,2016-072A,2026-06-27T20:11:22.263360,1.00273492,.00429367,0.8957,82.8595,90.3532,222.3659,0,U,41869,999,3540,0,.42E-6,0
WGS F8 (USA 272),2016-075A,2026-06-27T18:21:02.928672,1.00281238,.00009303,0.0466,54.3106,46.4614,240.2350,0,U,41879,999,3492,0,0,0
FENGYUN 4A,2016-077A,2026-06-27T21:38:53.588832,1.00278495,.0007946,2.3489,80.1799,157.9961,126.1925,0,U,41882,999,3503,0,-.347E-5,0
ECHOSTAR 19,2016-079A,2026-06-27T22:18:41.442912,1.00270717,.00016311,0.0164,30.6203,58.6985,64.2748,0,U,41893,999,3481,0,-.127E-5,0
JCSAT-110A (JCSAT-15),2016-082A,2026-06-27T23:35:02.867712,1.00271329,.0000844,0.0181,9.2794,94.8001,275.8393,0,U,41903,999,3486,0,-.339E-5,0
STAR ONE D1,2016-082B,2026-06-27T22:22:26.083776,1.00271512,.00023008,0.0247,59.2345,53.3267,55.0848,0,U,41904,999,3488,0,-.199E-5,0
TJS-2,2017-001A,2026-06-27T22:18:56.252736,1.00272501,.00008062,0.8606,85.2064,46.3168,185.7814,0,U,41911,999,3482,0,.4E-7,0
SBIRS GEO-4 (USA 273),2017-004A,2026-06-27T21:09:33.086016,1.00274226,.00023898,2.2629,43.5716,45.5099,165.2033,0,U,41937,999,3470,0,.133E-5,0
HISPASAT 36W-1,2017-006A,2026-06-27T15:45:17.660160,1.00270277,.00010511,0.0112,313.0675,140.8189,22.2042,0,U,41942,999,3435,0,-.233E-5,0
TELKOM 3S,2017-007A,2026-06-27T23:35:23.703936,1.00272612,.00025185,0.0164,66.0765,30.8949,290.9681,0,U,41944,999,3424,0,-.351E-5,0
INTELSAT 32E (IS-32E),2017-007B,2026-06-27T17:26:05.563392,1.00272230,.0000822,0.0130,335.1837,22.4501,136.5419,0,U,41945,999,3433,0,-.257E-5,0
ECHOSTAR 23,2017-014A,2026-06-27T15:24:12.181824,1.00269724,.00020111,0.0288,22.8488,72.5824,301.4733,0,U,42070,999,3402,0,0,0
WGS F9 (USA 275),2017-016A,2026-06-27T15:52:19.299072,1.00270156,.00004467,0.0265,352.0811,64.7301,85.0431,0,U,42075,999,3400,0,0,0
SES-10,2017-017A,2026-06-27T13:53:53.003616,1.00273087,.00030472,0.0187,36.0562,66.1004,315.1091,0,U,42432,999,3385,0,-.261E-5,0
CHINASAT 16 (SJ-13),2017-018A,2026-06-27T23:25:53.885568,1.00272817,.00039079,0.0969,89.8901,125.0148,163.1688,0,U,42662,999,3385,0,-.341E-5,0
KOREASAT 7,2017-023A,2026-06-27T23:32:14.135424,1.00271438,.00005952,0.0229,21.4395,57.1872,306.4218,0,U,42691,999,3347,0,-.35E-5,0
SGDC,2017-023B,2026-06-27T10:37:17.379264,1.00272934,.00028089,0.0243,60.7130,40.0755,259.2393,0,U,42692,999,3351,0,-.238E-5,0
GSAT-9,2017-024A,2026-06-27T17:06:07.805376,1.00275994,.00021658,0.0417,88.5410,17.0328,164.0639,0,U,42695,999,3340,0,-.275E-5,0
INMARSAT 5-F4,2017-025A,2026-06-27T16:11:40.433856,1.00269586,.00003756,0.0282,25.5755,48.5200,141.1089,0,U,42698,999,3338,0,0,0
SES-15,2017-026A,2026-06-27T15:18:57.684096,1.00272066,.00007315,0.0223,331.2484,121.5342,283.5476,0,U,42709,999,753,0,.71E-6,0
QZS-2 (MICHIBIKI-2),2017-028A,2026-06-27T11:52:38.452800,1.00281278,.07589853,39.4116,243.0027,269.3731,83.4413,0,U,42738,999,773,0,-.13E-5,0
VIASAT-2,2017-029A,2026-06-27T13:53:08.074752,1.00272170,.00004811,0.0170,301.4559,129.4405,343.1940,0,U,42740,999,3330,0,-.254E-5,0
EUTELSAT 172B,2017-029B,2026-06-27T21:52:44.761152,1.00272464,.00003203,0.0378,135.3738,317.3928,323.4379,0,U,42741,999,3384,0,.6E-7,0
GSAT-19,2017-031A,2026-06-27T22:11:23.978112,1.00272085,.00071683,0.0204,9.8981,68.4019,218.4319,0,U,42747,999,3325,0,0,0
ECHOSTAR 21,2017-032A,2026-06-27T22:07:38.823168,1.00273680,.00026182,1.7698,356.4118,90.4705,171.3220,0,U,42749,999,3320,0,.78E-6,0
BULGARIASAT-1,2017-038A,2026-06-27T22:15:38.750112,1.00267458,.00035613,0.0347,75.2967,29.4390,147.1062,0,U,42801,999,3295,0,.22E-6,0
HELLAS-SAT 3,2017-040A,2026-06-27T18:12:57.846240,1.00269941,.00043303,0.0425,38.1326,22.4672,167.5099,0,U,42814,999,3291,0,.164E-5,0
GSAT-17,2017-040B,2026-06-27T23:47:27.011040,1.00272306,.00013703,0.0328,85.4594,205.6681,75.3337,0,U,42815,999,3289,0,-.246E-5,0
INTELSAT 35E (IS-35E),2017-041A,2026-06-27T19:11:14.351424,1.00268878,.00023823,0.0289,29.8995,68.9371,70.3884,0,U,42818,999,3292,0,0,0
COSMOS 2520,2017-046A,2026-06-27T22:07:44.993856,1.00270924,.00003617,0.0438,98.9494,31.4413,162.5667,0,U,42907,999,3250,0,.149E-5,0
